{
  "type": "FeatureCollection",
  "features": [
    {
      "type": "Feature",
      "properties": {
        "norad_id": 40894,
        "name": "GAOFEN-9 01",
        "group": "resource",
        "lat": 1.1748351949165499,
        "lon": 29.59793286634008,
        "alt_km": 605.9592923595537,
        "timestamp": "2025-12-16T23:36:35.842163+00:00",
        "meta_object_name": "GAOFEN-9 01",
        "meta_object_id": "2015-047A",
        "meta_epoch": "2025-12-16T07:24:18.511776",
        "meta_mean_motion": 14.82431266,
        "meta_eccentricity": 0.00281123,
        "meta_inclination": 97.6539,
        "meta_ra_of_asc_node": 29.1099,
        "meta_arg_of_pericenter": 22.8927,
        "meta_mean_anomaly": 337.3534,
        "meta_ephemeris_type": 0,
        "meta_classification_type": "U",
        "meta_norad_cat_id": 40894,
        "meta_element_set_no": 999,
        "meta_rev_at_epoch": 55309,
        "meta_bstar": 0.00014551679,
        "meta_mean_motion_dot": 1.123e-05,
        "meta_mean_motion_ddot": 0,
        "tle_line1": "1 40894U 15047A   25350.30854759  .00001123  00000+0  14552-3 0  9994",
        "tle_line2": "2 40894  97.6539  29.1099 0028112  22.8927 337.3534 14.82431266553097"
      },
      "geometry": {
        "type": "Point",
        "coordinates": [
          29.59793286634008,
          1.1748351949165499
        ]
      }
    },
    {
      "type": "Feature",
      "properties": {
        "norad_id": 41026,
        "name": "YAOGAN-28",
        "group": "resource",
        "lat": 71.32713679748636,
        "lon": 106.42863912013452,
        "alt_km": 479.0038025813028,
        "timestamp": "2025-12-16T23:36:35.842173+00:00",
        "meta_object_name": "YAOGAN-28",
        "meta_object_id": "2015-064A",
        "meta_epoch": "2025-12-16T09:06:49.252608",
        "meta_mean_motion": 15.24416287,
        "meta_eccentricity": 0.0012519,
        "meta_inclination": 97.2802,
        "meta_ra_of_asc_node": 128.069,
        "meta_arg_of_pericenter": 114.3221,
        "meta_mean_anomaly": 245.9325,
        "meta_ephemeris_type": 0,
        "meta_classification_type": "U",
        "meta_norad_cat_id": 41026,
        "meta_element_set_no": 999,
        "meta_rev_at_epoch": 56280,
        "meta_bstar": 0.00025667984,
        "meta_mean_motion_dot": 6.238e-05,
        "meta_mean_motion_ddot": 0,
        "tle_line1": "1 41026U 15064A   25350.37973672  .00006238  00000+0  25668-3 0  9996",
        "tle_line2": "2 41026  97.2802 128.0690 0012519 114.3221 245.9325 15.24416287562802"
      },
      "geometry": {
        "type": "Point",
        "coordinates": [
          106.42863912013452,
          71.32713679748636
        ]
      }
    },
    {
      "type": "Feature",
      "properties": {
        "norad_id": 41038,
        "name": "YAOGAN-29",
        "group": "resource",
        "lat": -74.23245848240511,
        "lon": 164.20400484083794,
        "alt_km": 627.46932909932,
        "timestamp": "2025-12-16T23:36:35.842184+00:00",
        "meta_object_name": "YAOGAN-29",
        "meta_object_id": "2015-069A",
        "meta_epoch": "2025-12-16T07:52:56.130816",
        "meta_mean_motion": 14.82886718,
        "meta_eccentricity": 1.889e-05,
        "meta_inclination": 98.0223,
        "meta_ra_of_asc_node": 13.5121,
        "meta_arg_of_pericenter": 201.7531,
        "meta_mean_anomaly": 158.3674,
        "meta_ephemeris_type": 0,
        "meta_classification_type": "U",
        "meta_norad_cat_id": 41038,
        "meta_element_set_no": 999,
        "meta_rev_at_epoch": 54352,
        "meta_bstar": 2.5498115e-05,
        "meta_mean_motion_dot": 1.53e-06,
        "meta_mean_motion_ddot": 0,
        "tle_line1": "1 41038U 15069A   25350.32842744  .00000153  00000+0  25498-4 0  9996",
        "tle_line2": "2 41038  98.0223  13.5121 0000188 201.7531 158.3674 14.82886718543527"
      },
      "geometry": {
        "type": "Point",
        "coordinates": [
          164.20400484083794,
          -74.23245848240511
        ]
      }
    },
    {
      "type": "Feature",
      "properties": {
        "norad_id": 41167,
        "name": "KENT RIDGE 1",
        "group": "resource",
        "lat": 14.904112400867096,
        "lon": -95.7709229113646,
        "alt_km": 497.5264949917255,
        "timestamp": "2025-12-16T23:36:35.842194+00:00",
        "meta_object_name": "KENT RIDGE 1",
        "meta_object_id": "2015-077B",
        "meta_epoch": "2025-12-16T04:21:40.220064",
        "meta_mean_motion": 15.21665252,
        "meta_eccentricity": 0.00084925,
        "meta_inclination": 14.9782,
        "meta_ra_of_asc_node": 185.6007,
        "meta_arg_of_pericenter": 179.6251,
        "meta_mean_anomaly": 180.4078,
        "meta_ephemeris_type": 0,
        "meta_classification_type": "U",
        "meta_norad_cat_id": 41167,
        "meta_element_set_no": 999,
        "meta_rev_at_epoch": 55316,
        "meta_bstar": 0.00013603568,
        "meta_mean_motion_dot": 3.923e-05,
        "meta_mean_motion_ddot": 0,
        "tle_line1": "1 41167U 15077B   25350.18171551  .00003923  00000+0  13604-3 0  9996",
        "tle_line2": "2 41167  14.9782 185.6007 0008492 179.6251 180.4078 15.21665252553166"
      },
      "geometry": {
        "type": "Point",
        "coordinates": [
          -95.7709229113646,
          14.904112400867096
        ]
      }
    },
    {
      "type": "Feature",
      "properties": {
        "norad_id": 41194,
        "name": "GAOFEN-4",
        "group": "resource",
        "lat": 0.16264080253092644,
        "lon": -174.30122693913316,
        "alt_km": 35773.37384148267,
        "timestamp": "2025-12-16T23:36:35.842206+00:00",
        "meta_object_name": "GAOFEN-4",
        "meta_object_id": "2015-083A",
        "meta_epoch": "2025-12-16T08:43:26.978880",
        "meta_mean_motion": 1.00273836,
        "meta_eccentricity": 0.00029274,
        "meta_inclination": 0.1795,
        "meta_ra_of_asc_node": 81.6086,
        "meta_arg_of_pericenter": 97.3514,
        "meta_mean_anomaly": 142.8439,
        "meta_ephemeris_type": 0,
        "meta_classification_type": "U",
        "meta_norad_cat_id": 41194,
        "meta_element_set_no": 999,
        "meta_rev_at_epoch": 3669,
        "meta_bstar": 0,
        "meta_mean_motion_dot": -3.12e-06,
        "meta_mean_motion_ddot": 0,
        "tle_line1": "1 41194U 15083A   25350.36350670 -.00000312  00000+0  00000+0 0  9996",
        "tle_line2": "2 41194   0.1795  81.6086 0002927  97.3514 142.8439  1.00273836 36696"
      },
      "geometry": {
        "type": "Point",
        "coordinates": [
          -174.30122693913316,
          0.16264080253092644
        ]
      }
    },
    {
      "type": "Feature",
      "properties": {
        "norad_id": 41240,
        "name": "JASON-3",
        "group": "resource",
        "lat": -2.2536076936959075,
        "lon": -30.095563363646562,
        "alt_km": 1312.9998226087464,
        "timestamp": "2025-12-16T23:36:35.842218+00:00",
        "meta_object_name": "JASON-3",
        "meta_object_id": "2016-002A",
        "meta_epoch": "2025-12-16T07:45:09.812736",
        "meta_mean_motion": 12.8762674,
        "meta_eccentricity": 0.00071722,
        "meta_inclination": 66.0394,
        "meta_ra_of_asc_node": 150.2906,
        "meta_arg_of_pericenter": 271.0111,
        "meta_mean_anomaly": 89.0086,
        "meta_ephemeris_type": 0,
        "meta_classification_type": "U",
        "meta_norad_cat_id": 41240,
        "meta_element_set_no": 999,
        "meta_rev_at_epoch": 46370,
        "meta_bstar": 0.00012343072,
        "meta_mean_motion_dot": -3.1e-07,
        "meta_mean_motion_ddot": 0,
        "tle_line1": "1 41240U 16002A   25350.32303024 -.00000031  00000+0  12343-3 0  9992",
        "tle_line2": "2 41240  66.0394 150.2906 0007172 271.0111  89.0086 12.87626740463708"
      },
      "geometry": {
        "type": "Point",
        "coordinates": [
          -30.095563363646562,
          -2.2536076936959075
        ]
      }
    },
    {
      "type": "Feature",
      "properties": {
        "norad_id": 41335,
        "name": "SENTINEL-3A",
        "group": "resource",
        "lat": 0.8465698790964653,
        "lon": -123.9347820050017,
        "alt_km": 805.4780522872888,
        "timestamp": "2025-12-16T23:36:35.842228+00:00",
        "meta_object_name": "SENTINEL-3A",
        "meta_object_id": "2016-011A",
        "meta_epoch": "2025-12-16T07:37:31.800288",
        "meta_mean_motion": 14.26732087,
        "meta_eccentricity": 9.273e-05,
        "meta_inclination": 98.6312,
        "meta_ra_of_asc_node": 55.2799,
        "meta_arg_of_pericenter": 91.9224,
        "meta_mean_anomaly": 268.2063,
        "meta_ephemeris_type": 0,
        "meta_classification_type": "U",
        "meta_norad_cat_id": 41335,
        "meta_element_set_no": 999,
        "meta_rev_at_epoch": 51198,
        "meta_bstar": 6.9805416e-05,
        "meta_mean_motion_dot": 1.25e-06,
        "meta_mean_motion_ddot": 0,
        "tle_line1": "1 41335U 16011A   25350.31772917  .00000125  00000+0  69805-4 0  9996",
        "tle_line2": "2 41335  98.6312  55.2799 0000927  91.9224 268.2063 14.26732087511980"
      },
      "geometry": {
        "type": "Point",
        "coordinates": [
          -123.9347820050017,
          0.8465698790964653
        ]
      }
    }
  ]
}